NORAD_CAT_ID,OBJECT_NAME,OBJECT_TYPE,EPOCH,MEAN_MOTION,ECCENTRICITY,INCLINATION,RA_OF_ASC_NODE,ARG_OF_PERICENTER,MEAN_ANOMALY,BSTAR,MEAN_MOTION_DOT,MEAN_MOTION_DDOT,TLE_LINE0,TLE_LINE1,TLE_LINE2,SEMIMAJOR_AXIS,PERIOD,APOGEE,PERIGEE,DECAYED
55404.0,STARLINK-5607,PAYLOAD,2023-11-03 15:10:21,14.98351008,0.0002616,70.0015,65.5224,266.8334,93.2525,-0.00026841,-3.296e-05,0.0,0 STARLINK-5607,1 55404U 23014P   23307.63219472 -.00003296  00000-0 -26841-3 0  9993,2 55404  70.0015  65.5224 0002616 266.8334  93.2525 14.98351008 43679,6950.128,96.106,573.811,570.175,0.0
55404.0,STARLINK-5607,PAYLOAD,2023-11-03 18:22:37,14.98351498,0.0003176,70.0009,65.1854,271.2136,88.8659,-0.00030952,-3.786e-05,0.0,0 STARLINK-5607,1 55404U 23014P   23307.76571375 -.00003786  00000-0 -30952-3 0  9992,2 55404  70.0009  65.1854 0003176 271.2136  88.8659 14.98351498 42758,6950.126,96.106,574.199,569.784,0.0
55404.0,STARLINK-5607,PAYLOAD,2023-11-04 10:23:58,14.9832921,0.0003137,70.0011,63.5032,271.3799,88.7001,3.9163e-05,3.74e-06,0.0,0 STARLINK-5607,1 55404U 23014P   23308.43331956  .00000374  00000-0  39163-4 0  9998,2 55404  70.0011  63.5032 0003137 271.3799  88.7001 14.98329210 42852,6950.195,96.107,574.241,569.88,0.0
55404.0,STARLINK-5607,PAYLOAD,2023-11-04 13:36:14,14.98332665,0.0003097,70.0012,63.1664,272.2489,87.8315,5.6442e-05,5.81e-06,0.0,0 STARLINK-5607,1 55404U 23014P   23308.56683688  .00000581  00000-0  56442-4 0  9993,2 55404  70.0012  63.1664 0003097 272.2489  87.8315 14.98332665 43814,6950.185,96.107,574.202,569.897,0.0
55404.0,STARLINK-5607,PAYLOAD,2023-11-04 18:24:36,14.98360225,0.0003199,70.0014,62.6607,273.0181,87.0612,0.00031483,3.668e-05,0.0,0 STARLINK-5607,1 55404U 23014P   23308.76709059  .00003668  00000-0  31483-3 0  9992,2 55404  70.0014  62.6607 0003199 273.0181  87.0612 14.98360225 42902,6950.099,96.105,574.188,569.741,0.0
55404.0,STARLINK-5607,PAYLOAD,2023-11-05 12:02:07,14.98324077,0.0003141,70.0013,60.8101,268.9519,91.128,-1.7957e-05,-3.07e-06,0.0,0 STARLINK-5607,1 55404U 23014P   23309.50147805 -.00000307  00000-0 -17957-4 0  9990,2 55404  70.0013  60.8101 0003141 268.9519  91.1280 14.98324077 43010,6950.211,96.107,574.259,569.893,0.0
55404.0,STARLINK-5607,PAYLOAD,2023-11-05 13:38:15,14.98326845,0.0003053,70.0013,60.6419,267.3896,92.6913,4.2844e-05,4.18e-06,0.0,0 STARLINK-5607,1 55404U 23014P   23309.56823461  .00000418  00000-0  42844-4 0  9999,2 55404  70.0013  60.6419 0003053 267.3896  92.6913 14.98326845 43961,6950.203,96.107,574.19,569.946,0.0
55404.0,STARLINK-5607,PAYLOAD,2023-11-05 16:50:30,14.98338357,0.000322,70.0012,60.3048,269.4315,90.6475,0.00012612,1.412e-05,0.0,0 STARLINK-5607,1 55404U 23014P   23309.70174475  .00001412  00000-0  12612-3 0  9993,2 55404  70.0012  60.3048 0003220 269.4315  90.6475 14.98338357 43041,6950.167,96.106,574.27,569.794,0.0
55404.0,STARLINK-5607,PAYLOAD,2023-11-06 13:40:14,14.98349129,0.0003184,70.0008,58.1157,272.9651,87.1143,9.706e-05,1.066e-05,0.0,0 STARLINK-5607,1 55404U 23014P   23310.56961313  .00001066  00000-0  97060-4 0  9990,2 55404  70.0008  58.1157 0003184 272.9651  87.1143 14.98349129 44114,6950.134,96.106,574.212,569.786,0.0
55404.0,STARLINK-5607,PAYLOAD,2023-11-06 15:16:27,14.98292594,0.0002926,70.0009,57.9469,276.5473,83.5353,-0.0005526,-6.674e-05,0.0,0 STARLINK-5607,1 55404U 23014P   23310.63642436 -.00006674  00000-0 -55260-3 0  9997,2 55404  70.0009  57.9469 0002926 276.5473  83.5353 14.98292594 43185,6950.309,96.109,574.207,570.14,0.0
55404.0,STARLINK-5607,PAYLOAD,2023-11-07 00:53:14,14.98313423,0.0003521,70.0007,56.9374,272.9758,87.0998,-0.00063351,-7.641e-05,0.0,0 STARLINK-5607,1 55404U 23014P   23311.03697708 -.00007641  00000-0 -63351-3 0  9999,2 55404  70.0007  56.9374 0003521 272.9758  87.0998 14.98313423 43241,6950.244,96.108,574.556,569.662,0.0
55404.0,STARLINK-5607,PAYLOAD,2023-11-07 12:06:11,14.98307819,0.0002968,70.0011,55.7596,262.6225,97.4597,-0.00011235,-1.432e-05,0.0,0 STARLINK-5607,1 55404U 23014P   23311.50429400 -.00001432  00000-0 -11235-3 0  9999,2 55404  70.0011  55.7596 0002968 262.6225  97.4597 14.98307819 43318,6950.261,96.108,574.189,570.064,0.0
55404.0,STARLINK-5607,PAYLOAD,2023-11-07 13:42:13,14.98384992,0.0003297,70.0017,55.5924,264.6301,95.4482,0.00075644,8.957e-05,0.0,0 STARLINK-5607,1 55404U 23014P   23311.57098747  .00008957  00000-0  75644-3 0  9993,2 55404  70.0017  55.5924 0003297 264.6301  95.4482 14.98384992 44263,6950.023,96.103,574.179,569.596,0.0
55404.0,STARLINK-5607,PAYLOAD,2023-11-08 00:55:14,14.98332438,0.0003553,70.0023,54.4147,275.1115,84.9638,-1.0679e-05,-2.2e-06,0.0,0 STARLINK-5607,1 55404U 23014P   23312.03835961 -.00000220  00000-0 -10679-4 0  9997,2 55404  70.0023  54.4147 0003553 275.1115  84.9638 14.98332438 43397,6950.185,96.107,574.52,569.581,0.0
55404.0,STARLINK-5607,PAYLOAD,2023-11-08 12:08:10,14.98341504,0.0003066,70.0015,53.2356,272.7351,87.3457,8.4781e-05,9.19e-06,0.0,0 STARLINK-5607,1 55404U 23014P   23312.50567222  .00000919  00000-0  84781-4 0  9999,2 55404  70.0015  53.2356 0003066 272.7351  87.3457 14.98341504 43469,6950.157,96.106,574.153,569.891,0.0
55404.0,STARLINK-5607,PAYLOAD,2023-11-08 13:44:18,14.98341061,0.0003024,70.0018,53.0675,266.8992,93.1821,0.00011455,1.274e-05,0.0,0 STARLINK-5607,1 55404U 23014P   23312.57243109  .00001274  00000-0  11455-3 0  9993,2 55404  70.0018  53.0675 0003024 266.8992  93.1821 14.98341061 44417,6950.159,96.106,574.125,569.922,0.0
55404.0,STARLINK-5607,PAYLOAD,2023-11-08 16:56:33,14.98347711,0.0003161,70.0015,52.7309,274.9912,85.0886,0.00021082,2.424e-05,0.0,0 STARLINK-5607,1 55404U 23014P   23312.70594415  .00002424  00000-0  21082-3 0  9992,2 55404  70.0015  52.7309 0003161 274.9912  85.0886 14.98347711 43494,6950.138,96.106,574.2,569.806,0.0
55404.0,STARLINK-5607,PAYLOAD,2023-11-09 10:34:06,14.9829539,0.0003006,70.0017,50.8804,263.0386,97.0431,-0.00028063,-3.437e-05,0.0,0 STARLINK-5607,1 55404U 23014P   23313.44035167 -.00003437  00000-0 -28063-3 0  9991,2 55404  70.0017  50.8804 0003006 263.0386  97.0431 14.98295390 43604,6950.3,96.109,574.254,570.076,0.0
55404.0,STARLINK-5607,PAYLOAD,2023-11-09 13:46:20,14.9832106,0.0002944,70.002,50.5462,250.4114,109.6728,0.00021788,2.507e-05,0.0,0 STARLINK-5607,1 55404U 23014P   23313.57384363  .00002507  00000-0  21788-3 0  9992,2 55404  70.0020  50.5462 0002944 250.4114 109.6728 14.98321060 44563,6950.221,96.108,574.132,570.039,0.0
55404.0,STARLINK-5607,PAYLOAD,2023-11-09 15:22:28,14.98319019,0.0002925,70.0018,50.3778,251.5334,108.5508,0.00026588,3.08e-05,0.0,0 STARLINK-5607,1 55404U 23014P   23313.64060399  .00003080  00000-0  26588-3 0  9990,2 55404  70.0018  50.3778 0002925 251.5334 108.5508 14.98319019 43635,6950.227,96.108,574.125,570.059,0.0
55404.0,STARLINK-5607,PAYLOAD,2023-11-09 23:23:06,14.98367177,0.000267,70.0019,49.5356,269.654,90.4313,-9.245e-05,-1.197e-05,0.0,0 STARLINK-5607,1 55404U 23014P   23313.97438512 -.00001197  00000-0 -92450-4 0  9993,2 55404  70.0019  49.5356 0002670 269.6540  90.4313 14.98367177 43680,6950.078,96.105,573.799,570.087,0.0
55404.0,STARLINK-5607,PAYLOAD,2023-11-10 12:12:12,14.98336673,0.0002881,70.002,48.1866,271.1798,88.9031,-0.00011076,-1.414e-05,0.0,0 STARLINK-5607,1 55404U 23014P   23314.50848296 -.00001414  00000-0 -11076-3 0  9993,2 55404  70.0020  48.1866 0002881 271.1798  88.9031 14.98336673 43765,6950.172,96.107,574.04,570.035,0.0
55404.0,STARLINK-5607,PAYLOAD,2023-11-10 13:48:20,14.98338127,0.0002686,70.0019,48.0181,265.4036,94.6816,-0.00010685,-1.368e-05,0.0,0 STARLINK-5607,1 55404U 23014P   23314.57524136 -.00001368  00000-0 -10685-3 0  9997,2 55404  70.0019  48.0181 0002686 265.4036  94.6816 14.98338127 44713,6950.168,96.106,573.9,570.166,0.0
55404.0,STARLINK-5607,PAYLOAD,2023-11-10 15:24:28,14.98338443,0.0002672,70.002,47.8498,264.959,95.1264,-9.9757e-05,-1.283e-05,0.0,0 STARLINK-5607,1 55404U 23014P   23314.64200053 -.00001283  00000-0 -99757-4 0  9998,2 55404  70.0020  47.8498 0002672 264.9590  95.1264 14.98338443 44722,6950.167,96.106,573.889,570.175,0.0
55404.0,STARLINK-5607,PAYLOAD,2023-11-11 12:14:13,14.98334751,0.0002812,70.0011,45.6618,262.8855,97.1984,-3.482e-05,-5.08e-06,0.0,0 STARLINK-5607,1 55404U 23014P   23315.50987712 -.00000508  00000-0 -34820-4 0  9997,2 55404  70.0011  45.6618 0002812 262.8855  97.1984 14.98334751 43918,6950.178,96.107,573.998,570.089,0.0
55404.0,STARLINK-5607,PAYLOAD,2023-11-11 13:50:21,14.98331816,0.0002868,70.0008,45.4921,260.613,99.4705,1.2272e-05,5.3e-07,0.0,0 STARLINK-5607,1 55404U 23014P   23315.57663733  .00000053  00000-0  12272-4 0  9998,2 55404  70.0008  45.4921 0002868 260.6130  99.4705 14.98331816 44862,6950.187,96.107,574.046,570.059,0.0
55404.0,STARLINK-5607,PAYLOAD,2023-11-11 15:26:29,14.98331946,0.0003026,70.0008,45.3239,265.7707,94.3106,3.0041e-05,2.65e-06,0.0,0 STARLINK-5607,1 55404U 23014P   23315.64339669  .00000265  00000-0  30041-4 0  9993,2 55404  70.0008  45.3239 0003026 265.7707  94.3106 14.98331946 44870,6950.187,96.107,574.155,569.949,0.0
55404.0,STARLINK-5607,PAYLOAD,2023-11-12 12:16:14,14.98328773,0.0002879,70.0002,43.1361,268.0191,92.0638,1.3994e-05,7.4e-07,0.0,0 STARLINK-5607,1 55404U 23014P   23316.51127888  .00000074  00000-0  13994-4 0  9994,2 55404  70.0002  43.1361 0002879 268.0191  92.0638 14.98328773 44064,6950.197,96.107,574.063,570.061,0.0
55404.0,STARLINK-5607,PAYLOAD,2023-11-12 13:52:22,14.98326813,0.0002876,70.0005,42.967,268.9217,91.1612,-5.2141e-05,-7.15e-06,0.0,0 STARLINK-5607,1 55404U 23014P   23316.57804190 -.00000715  00000-0 -52141-4 0  9999,2 55404  70.0005  42.9670 0002876 268.9217  91.1612 14.98326813 45013,6950.203,96.107,574.067,570.069,0.0
55404.0,STARLINK-5607,PAYLOAD,2023-11-12 15:28:30,14.98330664,0.0002927,70.0006,42.7994,269.3438,90.7385,-1.2799e-05,-2.46e-06,0.0,0 STARLINK-5607,1 55404U 23014P   23316.64479838 -.00000246  00000-0 -12799-4 0  9998,2 55404  70.0006  42.7994 0002927 269.3438  90.7385 14.98330664 45020,6950.191,96.107,574.09,570.022,0.0
